IRIDIUM 7               
1 24793U 97020B   24263.55187241  .00000921  00000+0  31406-3 0  9991
2 24793  86.3911 290.3048 0002019  89.0581 271.0847 14.35430375433064
IRIDIUM 5               
1 24795U 97020D   24263.87079262  .00014699  00000+0  13451-2 0  9997
2 24795  86.3961 207.8369 0119991  27.2094 333.5350 14.89457457445189
IRIDIUM 4               
1 24796U 97020E   24263.56752012  .00000911  00000+0  30488-3 0  9997
2 24796  86.3905 287.3506 0002264  88.0169 272.1288 14.36355759433613
IRIDIUM 914             
1 24836U 97030A   24263.62226475  .00001080  00000+0  33531-3 0  9999
2 24836  86.3897 296.7448 0003530  66.9578 293.1993 14.40253992568170
IRIDIUM 16              
1 24841U 97030F   24263.66694106  .00001073  00000+0  34735-3 0  9998
2 24841  86.4040 318.9597 0001484 161.9088 198.2163 14.38152594428371
IRIDIUM 911             
1 24842U 97030G   24263.65020823  .00001453  00000+0  39520-3 0  9996
2 24842  86.4464 318.0080 0012014 281.0895  78.8956 14.46870490435957
IRIDIUM 17              
1 24870U 97034B   24263.62601764  .00001311  00000+0  43375-3 0  9993
2 24870  86.4015 348.5390 0002769 129.8040 230.3402 14.37258700424716
IRIDIUM 920             
1 24871U 97034C   24263.66916073  .00001097  00000+0  33545-3 0  9999
2 24871  86.4001 328.3864 0009482 250.3736 109.6441 14.40959114427877
